1 27386U 02009A   10208.01402874 -.00000040  00000-0  14115-5 0  2786
2 27386 098.5494 274.5517 0001135 094.4153 265.7160 14.32247640439448